MESAT1                  
1 60209U 24125G   25172.55896463  .00012441  00000+0  34916-3 0  9991
2 60209  97.2788  24.0455 0020317  95.0857 265.2707 15.36487177 53799
OOV-CUBE (TUBSAT-30)    
1 60240U 24128F   25172.65989602  .00001821  00000+0  15689-3 0  9994
2 60240  61.9970  40.4070 0052966  57.1537 303.4636 15.00320066 51977
COLIBRI-S (RS67S)       
1 61746U 24199M   25172.87825176  .00009573  00000+0  30322-3 0  9996
2 61746  97.3563  41.4656 0013508 134.0982 226.1374 15.32856133 81976
HORS 3 (RS81S)          
1 61753U 24199U   25172.79375252  .00012079  00000+0  36537-3 0  9999
2 61753  97.3530  41.4895 0011764 140.3281 219.8825 15.34283432 81975
HORS 4 (RS82S)          
1 61754U 24199V   25172.79061272  .00012432  00000+0  36700-3 0  9999
2 61754  97.3527  41.6368 0011888 140.0976 220.1144 15.35043381 81982
HORIZON (RS59S)         
1 61757U 24199Y   25172.88274251  .00018803  00000+0  49640-3 0  9990
2 61757  97.3549  42.3494 0012346 128.8394 231.3955 15.38427970 82039
SIT-2086                
1 61764U 24199AF  25172.86132156  .00008574  00000+0  24509-3 0  9994
2 61764  97.3532  42.0086 0009951 133.8098 226.3971 15.36184571 78850
MORDOVIA-IOT (RS50S)    
1 61765U 24199AG  25172.84002604  .00026961  00000+0  62135-3 0  9994
2 61765  97.3526  42.9884 0011666 124.5517 235.6834 15.42495566 78923
RUZAEVKA 390 (RS44S)    
1 61766U 24199AH  25172.86441297  .00024260  00000+0  58628-3 0  9994
2 61766  97.3528  42.8006 0011735 124.6875 235.5479 15.41084708 78910
HYPERVIEW 1G (RS66S)    
1 61772U 24199AP  25172.86070316  .00015664  00000+0  44832-3 0  9991
2 61772  97.3528  41.6959 0014818 143.0885 217.1382 15.35921912 78843
ALTAIR (RS65S)          
1 61779U 24199AW  25172.84283829  .00005461  00000+0  19523-3 0  9994
2 61779  97.3550  40.5556 0016423 148.4396 211.7832 15.29103204 81917
ASRTU-1 (AO-123)        
1 61781U 24199AY  25172.82262689  .00004867  00000+0  17748-3 0  9992
2 61781  97.3541  40.4134 0016715 149.1811 211.0414 15.28505244 78751
TUSUR GO (RS78S)        
1 61782U 24199AZ  25172.82868549  .00019271  00000+0  52881-3 0  9992
2 61782  97.3521  41.7344 0015113 142.5852 217.6448 15.37187592 78841
SAMSAT-IONOSPHERE (RS7*)
1 61784U 24199BB  25172.90424786  .00013054  00000+0  39998-3 0  9991
2 61784  97.3535  41.3512 0015835 145.2457 214.9823 15.33798149 81970
