[
  {
    "OBJECT_NAME": "MESAT1",
    "OBJECT_ID": "2024-125G",
    "EPOCH": "2025-06-21T13:24:54.544032",
    "MEAN_MOTION": 15.36487177,
    "ECCENTRICITY": 0.0020317,
    "INCLINATION": 97.2788,
    "RA_OF_ASC_NODE": 24.0455,
    "ARG_OF_PERICENTER": 95.0857,
    "MEAN_ANOMALY": 265.2707,
    "EPHEMERIS_TYPE": 0,
    "CLASSIFICATION_TYPE": "U",
    "NORAD_CAT_ID": 60209,
    "ELEMENT_SET_NO": 999,
    "REV_AT_EPOCH": 5379,
    "BSTAR": 0.00034916,
    "MEAN_MOTION_DOT": 0.00012441,
    "MEAN_MOTION_DDOT": 0
  },
  {
    "OBJECT_NAME": "OOV-CUBE (TUBSAT-30)",
    "OBJECT_ID": "2024-128F",
    "EPOCH": "2025-06-21T15:50:15.016128",
    "MEAN_MOTION": 15.00320066,
    "ECCENTRICITY": 0.0052966,
    "INCLINATION": 61.997,
    "RA_OF_ASC_NODE": 40.407,
    "ARG_OF_PERICENTER": 57.1537,
    "MEAN_ANOMALY": 303.4636,
    "EPHEMERIS_TYPE": 0,
    "CLASSIFICATION_TYPE": "U",
    "NORAD_CAT_ID": 60240,
    "ELEMENT_SET_NO": 999,
    "REV_AT_EPOCH": 5197,
    "BSTAR": 0.00015689,
    "MEAN_MOTION_DOT": 1.821e-05,
    "MEAN_MOTION_DDOT": 0
  },
  {
    "OBJECT_NAME": "COLIBRI-S (RS67S)",
    "OBJECT_ID": "2024-199M",
    "EPOCH": "2025-06-21T21:04:40.952064",
    "MEAN_MOTION": 15.32856133,
    "ECCENTRICITY": 0.0013508,
    "INCLINATION": 97.3563,
    "RA_OF_ASC_NODE": 41.4656,
    "ARG_OF_PERICENTER": 134.0982,
    "MEAN_ANOMALY": 226.1374,
    "EPHEMERIS_TYPE": 0,
    "CLASSIFICATION_TYPE": "U",
    "NORAD_CAT_ID": 61746,
    "ELEMENT_SET_NO": 999,
    "REV_AT_EPOCH": 8197,
    "BSTAR": 0.00030322,
    "MEAN_MOTION_DOT": 9.573e-05,
    "MEAN_MOTION_DDOT": 0
  },
  {
    "OBJECT_NAME": "HORS 3 (RS81S)",
    "OBJECT_ID": "2024-199U",
    "EPOCH": "2025-06-21T19:03:00.217728",
    "MEAN_MOTION": 15.34283432,
    "ECCENTRICITY": 0.0011764,
    "INCLINATION": 97.353,
    "RA_OF_ASC_NODE": 41.4895,
    "ARG_OF_PERICENTER": 140.3281,
    "MEAN_ANOMALY": 219.8825,
    "EPHEMERIS_TYPE": 0,
    "CLASSIFICATION_TYPE": "U",
    "NORAD_CAT_ID": 61753,
    "ELEMENT_SET_NO": 999,
    "REV_AT_EPOCH": 8197,
    "BSTAR": 0.00036537,
    "MEAN_MOTION_DOT": 0.00012079,
    "MEAN_MOTION_DDOT": 0
  },
  {
    "OBJECT_NAME": "HORS 4 (RS82S)",
    "OBJECT_ID": "2024-199V",
    "EPOCH": "2025-06-21T18:58:28.939008",
    "MEAN_MOTION": 15.35043381,
    "ECCENTRICITY": 0.0011888,
    "INCLINATION": 97.3527,
    "RA_OF_ASC_NODE": 41.6368,
    "ARG_OF_PERICENTER": 140.0976,
    "MEAN_ANOMALY": 220.1144,
    "EPHEMERIS_TYPE": 0,
    "CLASSIFICATION_TYPE": "U",
    "NORAD_CAT_ID": 61754,
    "ELEMENT_SET_NO": 999,
    "REV_AT_EPOCH": 8198,
    "BSTAR": 0.000367,
    "MEAN_MOTION_DOT": 0.00012432,
    "MEAN_MOTION_DDOT": 0
  },
  {
    "OBJECT_NAME": "HORIZON (RS59S)",
    "OBJECT_ID": "2024-199Y",
    "EPOCH": "2025-06-21T21:11:08.952864",
    "MEAN_MOTION": 15.3842797,
    "ECCENTRICITY": 0.0012346,
    "INCLINATION": 97.3549,
    "RA_OF_ASC_NODE": 42.3494,
    "ARG_OF_PERICENTER": 128.8394,
    "MEAN_ANOMALY": 231.3955,
    "EPHEMERIS_TYPE": 0,
    "CLASSIFICATION_TYPE": "U",
    "NORAD_CAT_ID": 61757,
    "ELEMENT_SET_NO": 999,
    "REV_AT_EPOCH": 8203,
    "BSTAR": 0.0004964,
    "MEAN_MOTION_DOT": 0.00018803,
    "MEAN_MOTION_DDOT": 0
  },
  {
    "OBJECT_NAME": "SIT-2086",
    "OBJECT_ID": "2024-199AF",
    "EPOCH": "2025-06-21T20:40:18.182784",
    "MEAN_MOTION": 15.36184571,
    "ECCENTRICITY": 0.0009951,
    "INCLINATION": 97.3532,
    "RA_OF_ASC_NODE": 42.0086,
    "ARG_OF_PERICENTER": 133.8098,
    "MEAN_ANOMALY": 226.3971,
    "EPHEMERIS_TYPE": 0,
    "CLASSIFICATION_TYPE": "U",
    "NORAD_CAT_ID": 61764,
    "ELEMENT_SET_NO": 999,
    "REV_AT_EPOCH": 7885,
    "BSTAR": 0.00024509,
    "MEAN_MOTION_DOT": 8.574e-05,
    "MEAN_MOTION_DDOT": 0
  },
  {
    "OBJECT_NAME": "MORDOVIA-IOT (RS50S)",
    "OBJECT_ID": "2024-199AG",
    "EPOCH": "2025-06-21T20:09:38.249856",
    "MEAN_MOTION": 15.42495566,
    "ECCENTRICITY": 0.0011666,
    "INCLINATION": 97.3526,
    "RA_OF_ASC_NODE": 42.9884,
    "ARG_OF_PERICENTER": 124.5517,
    "MEAN_ANOMALY": 235.6834,
    "EPHEMERIS_TYPE": 0,
    "CLASSIFICATION_TYPE": "U",
    "NORAD_CAT_ID": 61765,
    "ELEMENT_SET_NO": 999,
    "REV_AT_EPOCH": 7892,
    "BSTAR": 0.00062135,
    "MEAN_MOTION_DOT": 0.00026961,
    "MEAN_MOTION_DDOT": 0
  },
  {
    "OBJECT_NAME": "RUZAEVKA 390 (RS44S)",
    "OBJECT_ID": "2024-199AH",
    "EPOCH": "2025-06-21T20:44:45.280608",
    "MEAN_MOTION": 15.41084708,
    "ECCENTRICITY": 0.0011735,
    "INCLINATION": 97.3528,
    "RA_OF_ASC_NODE": 42.8006,
    "ARG_OF_PERICENTER": 124.6875,
    "MEAN_ANOMALY": 235.5479,
    "EPHEMERIS_TYPE": 0,
    "CLASSIFICATION_TYPE": "U",
    "NORAD_CAT_ID": 61766,
    "ELEMENT_SET_NO": 999,
    "REV_AT_EPOCH": 7891,
    "BSTAR": 0.00058628,
    "MEAN_MOTION_DOT": 0.0002426,
    "MEAN_MOTION_DDOT": 0
  },
  {
    "OBJECT_NAME": "HYPERVIEW 1G (RS66S)",
    "OBJECT_ID": "2024-199AP",
    "EPOCH": "2025-06-21T20:39:24.753024",
    "MEAN_MOTION": 15.35921912,
    "ECCENTRICITY": 0.0014818,
    "INCLINATION": 97.3528,
    "RA_OF_ASC_NODE": 41.6959,
    "ARG_OF_PERICENTER": 143.0885,
    "MEAN_ANOMALY": 217.1382,
    "EPHEMERIS_TYPE": 0,
    "CLASSIFICATION_TYPE": "U",
    "NORAD_CAT_ID": 61772,
    "ELEMENT_SET_NO": 999,
    "REV_AT_EPOCH": 7884,
    "BSTAR": 0.00044832,
    "MEAN_MOTION_DOT": 0.00015664,
    "MEAN_MOTION_DDOT": 0
  },
  {
    "OBJECT_NAME": "ALTAIR (RS65S)",
    "OBJECT_ID": "2024-199AW",
    "EPOCH": "2025-06-21T20:13:41.228256",
    "MEAN_MOTION": 15.29103204,
    "ECCENTRICITY": 0.0016423,
    "INCLINATION": 97.355,
    "RA_OF_ASC_NODE": 40.5556,
    "ARG_OF_PERICENTER": 148.4396,
    "MEAN_ANOMALY": 211.7832,
    "EPHEMERIS_TYPE": 0,
    "CLASSIFICATION_TYPE": "U",
    "NORAD_CAT_ID": 61779,
    "ELEMENT_SET_NO": 999,
    "REV_AT_EPOCH": 8191,
    "BSTAR": 0.00019523,
    "MEAN_MOTION_DOT": 5.461e-05,
    "MEAN_MOTION_DDOT": 0
  },
  {
    "OBJECT_NAME": "ASRTU-1 (AO-123)",
    "OBJECT_ID": "2024-199AY",
    "EPOCH": "2025-06-21T19:44:34.963296",
    "MEAN_MOTION": 15.28505244,
    "ECCENTRICITY": 0.0016715,
    "INCLINATION": 97.3541,
    "RA_OF_ASC_NODE": 40.4134,
    "ARG_OF_PERICENTER": 149.1811,
    "MEAN_ANOMALY": 211.0414,
    "EPHEMERIS_TYPE": 0,
    "CLASSIFICATION_TYPE": "U",
    "NORAD_CAT_ID": 61781,
    "ELEMENT_SET_NO": 999,
    "REV_AT_EPOCH": 7875,
    "BSTAR": 0.00017748,
    "MEAN_MOTION_DOT": 4.867e-05,
    "MEAN_MOTION_DDOT": 0
  },
  {
    "OBJECT_NAME": "TUSUR GO (RS78S)",
    "OBJECT_ID": "2024-199AZ",
    "EPOCH": "2025-06-21T19:53:18.426336",
    "MEAN_MOTION": 15.37187592,
    "ECCENTRICITY": 0.0015113,
    "INCLINATION": 97.3521,
    "RA_OF_ASC_NODE": 41.7344,
    "ARG_OF_PERICENTER": 142.5852,
    "MEAN_ANOMALY": 217.6448,
    "EPHEMERIS_TYPE": 0,
    "CLASSIFICATION_TYPE": "U",
    "NORAD_CAT_ID": 61782,
    "ELEMENT_SET_NO": 999,
    "REV_AT_EPOCH": 7884,
    "BSTAR": 0.00052881,
    "MEAN_MOTION_DOT": 0.00019271,
    "MEAN_MOTION_DDOT": 0
  },
  {
    "OBJECT_NAME": "SAMSAT-IONOSPHERE (RS75S)",
    "OBJECT_ID": "2024-199BB",
    "EPOCH": "2025-06-21T21:42:07.015104",
    "MEAN_MOTION": 15.33798149,
    "ECCENTRICITY": 0.0015835,
    "INCLINATION": 97.3535,
    "RA_OF_ASC_NODE": 41.3512,
    "ARG_OF_PERICENTER": 145.2457,
    "MEAN_ANOMALY": 214.9823,
    "EPHEMERIS_TYPE": 0,
    "CLASSIFICATION_TYPE": "U",
    "NORAD_CAT_ID": 61784,
    "ELEMENT_SET_NO": 999,
    "REV_AT_EPOCH": 8197,
    "BSTAR": 0.00039998,
    "MEAN_MOTION_DOT": 0.00013054,
    "MEAN_MOTION_DDOT": 0
  }
]